{
  "norad_id": 69099,
  "name": "2026-106C",
  "history": [
    {
      "epoch": "2026-05-15T19:54:07.492896Z",
      "apogee_km": 542.5669336877509,
      "perigee_km": 524.7099471309266,
      "latitude_deg": -4.451726561664777e-05,
      "longitude_deg": 46.42079874920389,
      "height_km": 536.0663800487065,
      "semi_major_axis_km": 6911.775440409338,
      "eccentricity": 0.00129178,
      "inclination_deg": 97.5086,
      "raan_deg": 218.5071,
      "arg_perigee_deg": 274.2037,
      "mean_anomaly_deg": 85.7716,
      "mean_motion_rev_day": 15.10839506
    }
  ]
}