2026-106C               
1 69099U 26106C   26135.82925339  .00000503  00000+0  34035-4 0  9992
2 69099  97.5086 218.5071 0012917 274.2037  85.7716 15.10839506   102
